TDRS 3                  
1 19548U 88091B   22144.45796491 -.00000313  00000+0  00000+0 0  9997
2 19548  13.7334 351.5139 0036255 336.8078  29.6172  1.00266005110484
HST                     
1 20580U 90037B   22143.92157412  .00003732  00000+0  21008-3 0  9995
2 20580  28.4705 331.3465 0002783 125.4461 348.8373 15.10494041562762
TDRS 5                  
1 21639U 91054B   22143.78848269  .00000071  00000+0  00000+0 0  9990
2 21639  14.2404   4.8494 0026114   2.4051 350.2578  1.00271639112815
TDRS 6                  
1 22314U 93003B   22144.03498639 -.00000308  00000+0  00000+0 0  9992
2 22314  14.1306   8.0814 0011665 106.1114  94.2158  1.00272053107482
TDRS 7                  
1 23613U 95035B   22143.92990875 -.00000212  00000+0  00000+0 0  9992
2 23613  13.9877 358.7697 0030005  50.7470 251.3163  1.00266975 98350
ISS (ZARYA)             
1 25544U 98067A   22144.54806250  .00011199  00000+0  20636-3 0  9993
2 25544  51.6431  93.6656 0005128 152.4612   8.3140 15.49653478341516
LANDSAT 7               
1 25682U 99020A   22144.09692823  .00000510  00000+0  11616-3 0  9998
2 25682  97.9804 193.0851 0001447 102.5657 257.5720 14.59741025229011
TERRA                   
1 25994U 99068A   22144.16452595  .00000490  00000+0  11861-3 0  9993
2 25994  98.1374 216.6404 0001445  95.4139 316.6378 14.57165379193084
TDRS 8                  
1 26388U 00034A   22143.99875318 -.00000244  00000+0  00000+0 0  9995
2 26388  10.3313  42.7304 0023623 346.1687 301.5762  1.00274053 80274
TIMED                   
1 26998U 01055B   22143.84801638  .00001243  00000+0  13728-3 0  9998
2 26998  74.0721 328.6633 0001734 239.1933 120.9077 14.88642863109346
TDRS 9                  
1 27389U 02011A   22143.23537326 -.00000296  00000+0  00000+0 0  9992
2 27389   8.9678  61.0480 0025864 304.3479 257.9641  1.00270063 75547
AQUA                    
1 27424U 02022A   22144.10900766  .00000923  00000+0  21418-3 0  9999
2 27424  98.2460  86.2320 0001206  57.5748 313.3337 14.57275624 66688
TDRS 10                 
1 27566U 02055A   22143.54327882  .00000079  00000+0  00000+0 0  9993
2 27566   8.1589  50.1097 0009753 338.9502 236.5066  1.00268935 71331
SORCE                   
1 27651U 03004A   22144.06691367  .00002137  00000+0  23147-3 0  9991
2 27651  39.9964 353.6528 0024513 299.6297  60.2051 14.89864260 49458
AURA                    
1 28376U 04026A   22143.84380079  .00000949  00000+0  22065-3 0  9998
2 28376  98.2081  87.5328 0001528  85.0839 275.0533 14.57129350949642
SWIFT                   
1 28485U 04047A   22144.05743288  .00005013  00000+0  30127-3 0  9996
2 28485  20.5562 121.6375 0010525 350.7595   9.2645 15.06291058959940
THEMIS A                
1 30580U 07004A   22143.18879274 -.00000034  00000+0  24578-1 0  9999
2 30580  14.7433 347.7918 8378658 160.6568 280.3138  0.87834642 28216
THEMIS D                
1 30797U 07004D   22143.84857601 -.00000138  00000+0  00000+0 0  9999
2 30797  10.6606 337.5526 8343233 174.0291 139.4707  0.87837571 28016
THEMIS E                
1 30798U 07004E   22143.50307002 -.00000148  00000+0  00000+0 0  9999
2 30798  11.3621 350.1093 8329267 163.6969  18.9483  0.87840953 52858
AIM                     
1 31304U 07015A   22143.86666776  .00011592  00000+0  58347-3 0  9995
2 31304  97.8553  62.1562 0006886  99.0551 261.1460 15.17359878827460
FGRST (GLAST)           
1 33053U 08029A   22143.82015540  .00002792  00000+0  14072-3 0  9996
2 33053  25.5833 335.1416 0011594 254.3512 105.5744 15.12137380769961
WISE                    
1 36119U 09071A   22143.66316304  .00011066  00000+0  34569-3 0  9991
2 36119  97.2415 178.5836 0003600  60.0716 300.0883 15.33335919691704
TDRS 11                 
1 39070U 13004A   22143.85886775  .00000067  00000+0  00000+0 0  9994
2 39070   2.9530 345.3823 0007336  65.1887 325.7701  1.00277104 31801
TDRS 12                 
1 39504U 14004A   22143.81377596 -.00000283  00000+0  00000+0 0  9990
2 39504   3.8816 346.8724 0004795 107.5490  39.0831  1.00272313 29389
GPM-CORE                
1 39574U 14009C   22143.90470113  .00023819  00000+0  33123-3 0  9996
2 39574  65.0022 271.9111 0009800 264.6517  95.3511 15.56908586467784
MMS 1                   
1 40482U 15011A   22139.84485279 -.00000394  00000+0  00000+0 0  9995
2 40482  32.4594 106.2871 8629753  50.5039  51.7441  0.28354801 13214
MMS 2                   
1 40483U 15011B   22140.55734069 -.00000366  00000+0  00000+0 0  9999
2 40483  32.5047 106.3488 8643182  50.4675 124.4788  0.28365196 13199
MMS 3                   
1 40484U 15011C   22143.54229317 -.00000085  00000+0  00000+0 0  9995
2 40484  32.5380 106.4625 8662556  50.6364  69.3646  0.28461674 12970
MMS 4                   
1 40485U 15011D   22140.55736656 -.00000366  00000+0  00000+0 0  9995
2 40485  32.5031 106.3514 8642363  50.4725 124.4608  0.28365211 13199
TDRS 13                 
1 42915U 17047A   22143.89140014 -.00000115  00000+0  00000+0 0  9995
2 42915   4.5120 333.2939 0019651 110.0373 107.4828  1.00271990 17483
JPSS-1                  
1 43013U 17073A   22144.11788753  .00000075  00000+0  56234-4 0  9997
2 43013  98.7157  83.0537 0001478  99.1550 260.9793 14.19553414233770
